[
    {
        "Altitude(m)": 622200.0995552203,
        "Argument of Periapsis(deg)": 0.0,
        "Eccentricity": 0.0,
        "Inclination(deg)": 60.0,
        "Latitude(deg)": -52.162517125424756,
        "Longitude(deg)": 27.36088516459256,
        "Mean Anomaly(deg)": -65.45449999999992,
        "RAAN(deg)": 175.0,
        "Satellite Name": "Test1 788",
        "Satellite Number": 788,
        "Semi-Major Axis(m)": 6980739.136638005,
        "Time(s)": 0
    },
    {
        "Altitude(m)": 622058.266777267,
        "Argument of Periapsis(deg)": 0.00010418945913296404,
        "Eccentricity": 0.0,
        "Inclination(deg)": 60.0,
        "Latitude(deg)": -51.799265391505365,
        "Longitude(deg)": 28.12894095700349,
        "Mean Anomaly(deg)": -64.83439385453808,
        "RAAN(deg)": 174.99957995086024,
        "Satellite Name": "Test1 788",
        "Satellite Number": 788,
        "Semi-Major Axis(m)": 6980739.136638005,
        "Time(s)": 10
    }
]